{"type": "FeatureCollection", "features": [ {"type": "Feature", "properties": {"norad_id": 40938, "name": "BEIDOU-3S IGSO-2S (C56)", "group": "gnss", "lat": -48.99249538874116, "lon": -177.7660226784301, "alt_km": 35785.85611255012, "timestamp": "2025-12-18T23:35:49.301014+00:00", "meta": {"OBJECT_NAME": "BEIDOU-3S IGSO-2S (C56)", "OBJECT_ID": "2015-053A", "EPOCH": "2025-12-18T16:16:13.469952", "MEAN_MOTION": 1.0026889, "ECCENTRICITY": 0.00604868, "INCLINATION": 49.5013, "RA_OF_ASC_NODE": 260.9354, "ARG_OF_PERICENTER": 188.6566, "MEAN_ANOMALY": 337.9094, "EPHEMERIS_TYPE": 0, "CLASSIFICATION_TYPE": "U", "NORAD_CAT_ID": 40938, "ELEMENT_SET_NO": 999, "REV_AT_EPOCH": 3754, "BSTAR": 0, "MEAN_MOTION_DOT": -1.18e-06, "MEAN_MOTION_DDOT": 0}, "tle": {"line1": "1 40938U 15053A   25352.67793368 -.00000118  00000+0  00000+0 0  9993", "line2": "2 40938  49.5013 260.9354 0060486 188.6566 337.9094  1.00268890 37549"}}, "geometry": {"type": "Point", "coordinates": [-177.7660226784301, -48.99249538874116]}}, {"type": "Feature", "properties": {"norad_id": 41019, "name": "GPS BIIF-11 (PRN 10)", "group": "gnss", "lat": 36.109695933044954, "lon": -170.68418406806006, "alt_km": 20199.471969583414, "timestamp": "2025-12-18T23:35:49.301026+00:00", "meta": {"OBJECT_NAME": "GPS BIIF-11 (PRN 10)", "OBJECT_ID": "2015-062A", "EPOCH": "2025-12-18T07:03:43.989696", "MEAN_MOTION": 2.00567221, "ECCENTRICITY": 0.0110964, "INCLINATION": 56.8362, "RA_OF_ASC_NODE": 37.7874, "ARG_OF_PERICENTER": 230.0867, "MEAN_ANOMALY": 128.9943, "EPHEMERIS_TYPE": 0, "CLASSIFICATION_TYPE": "U", "NORAD_CAT_ID": 41019, "ELEMENT_SET_NO": 999, "REV_AT_EPOCH": 7420, "BSTAR": 0, "MEAN_MOTION_DOT": -6.9e-07, "MEAN_MOTION_DDOT": 0}, "tle": {"line1": "1 41019U 15062A   25352.29425914 -.00000069  00000+0  00000+0 0  9996", "line2": "2 41019  56.8362  37.7874 0110964 230.0867 128.9943  2.00567221 74204"}}, "geometry": {"type": "Point", "coordinates": [-170.68418406806006, 36.109695933044954]}}, {"type": "Feature", "properties": {"norad_id": 41028, "name": "GSAT-15 (GAGAN/PRN 139)", "group": "gnss", "lat": -0.030414905439596636, "lon": 175.2502114957072, "alt_km": 35780.44876581485, "timestamp": "2025-12-18T23:35:49.301039+00:00", "meta": {"OBJECT_NAME": "GSAT-15 (GAGAN/PRN 139)", "OBJECT_ID": "2015-065A", "EPOCH": "2025-12-18T13:44:24.120096", "MEAN_MOTION": 1.00271541, "ECCENTRICITY": 0.00025481, "INCLINATION": 0.0334, "RA_OF_ASC_NODE": 270.0233, "ARG_OF_PERICENTER": 322.7004, "MEAN_ANOMALY": 154.3033, "EPHEMERIS_TYPE": 0, "CLASSIFICATION_TYPE": "U", "NORAD_CAT_ID": 41028, "ELEMENT_SET_NO": 999, "REV_AT_EPOCH": 3698, "BSTAR": 0, "MEAN_MOTION_DOT": -2.33e-06, "MEAN_MOTION_DDOT": 0}, "tle": {"line1": "1 41028U 15065A   25352.57250139 -.00000233  00000+0  00000+0 0  9998", "line2": "2 41028   0.0334 270.0233 0002548 322.7004 154.3033  1.00271541 36987"}}, "geometry": {"type": "Point", "coordinates": [175.2502114957072, -0.030414905439596636]}}, {"type": "Feature", "properties": {"norad_id": 41174, "name": "GSAT0209 (GALILEO 12)", "group": "gnss", "lat": 12.971394083588333, "lon": 115.22960063939831, "alt_km": 23214.259477837793, "timestamp": "2025-12-18T23:35:49.301050+00:00", "meta": {"OBJECT_NAME": "GSAT0209 (GALILEO 12)", "OBJECT_ID": "2015-079A", "EPOCH": "2025-12-17T18:49:30.009504", "MEAN_MOTION": 1.70474581, "ECCENTRICITY": 0.00024688, "INCLINATION": 55.7156, "RA_OF_ASC_NODE": 106.2426, "ARG_OF_PERICENTER": 347.1145, "MEAN_ANOMALY": 12.8381, "EPHEMERIS_TYPE": 0, "CLASSIFICATION_TYPE": "U", "NORAD_CAT_ID": 41174, "ELEMENT_SET_NO": 999, "REV_AT_EPOCH": 6168, "BSTAR": 0, "MEAN_MOTION_DOT": -9e-08, "MEAN_MOTION_DDOT": 0}, "tle": {"line1": "1 41174U 15079A   25351.78437511 -.00000009  00000+0  00000+0 0  9999", "line2": "2 41174  55.7156 106.2426 0002468 347.1145  12.8381  1.70474581 61685"}}, "geometry": {"type": "Point", "coordinates": [115.22960063939831, 12.971394083588333]}}, {"type": "Feature", "properties": {"norad_id": 41175, "name": "GSAT0208 (GALILEO 11)", "group": "gnss", "lat": -46.07892135104548, "lon": -28.76897261288779, "alt_km": 23229.88357695784, "timestamp": "2025-12-18T23:35:49.301061+00:00", "meta": {"OBJECT_NAME": "GSAT0208 (GALILEO 11)", "OBJECT_ID": "2015-079B", "EPOCH": "2025-12-18T00:06:32.261184", "MEAN_MOTION": 1.70474394, "ECCENTRICITY": 0.00019057, "INCLINATION": 55.7144, "RA_OF_ASC_NODE": 106.2337, "ARG_OF_PERICENTER": 356.5595, "MEAN_ANOMALY": 3.3982, "EPHEMERIS_TYPE": 0, "CLASSIFICATION_TYPE": "U", "NORAD_CAT_ID": 41175, "ELEMENT_SET_NO": 999, "REV_AT_EPOCH": 6210, "BSTAR": 0, "MEAN_MOTION_DOT": -8e-08, "MEAN_MOTION_DDOT": 0}, "tle": {"line1": "1 41175U 15079B   25352.00454006 -.00000008  00000+0  00000+0 0  9993", "line2": "2 41175  55.7144 106.2337 0001905 356.5595   3.3982  1.70474394 62104"}}, "geometry": {"type": "Point", "coordinates": [-28.76897261288779, -46.07892135104548]}}, {"type": "Feature", "properties": {"norad_id": 41241, "name": "IRNSS-1E", "group": "gnss", "lat": 24.182788698588492, "lon": -161.6486633561186, "alt_km": 35734.14477143682, "timestamp": "2025-12-18T23:35:49.301073+00:00", "meta": {"OBJECT_NAME": "IRNSS-1E", "OBJECT_ID": "2016-003A", "EPOCH": "2025-12-18T14:48:50.843232", "MEAN_MOTION": 1.00271358, "ECCENTRICITY": 0.00216611, "INCLINATION": 32.8383, "RA_OF_ASC_NODE": 62.3675, "ARG_OF_PERICENTER": 188.4275, "MEAN_ANOMALY": 170.6574, "EPHEMERIS_TYPE": 0, "CLASSIFICATION_TYPE": "U", "NORAD_CAT_ID": 41241, "ELEMENT_SET_NO": 999, "REV_AT_EPOCH": 3626, "BSTAR": 0, "MEAN_MOTION_DOT": -3.05e-06, "MEAN_MOTION_DDOT": 0}, "tle": {"line1": "1 41241U 16003A   25352.61725513 -.00000305  00000+0  00000+0 0  9996", "line2": "2 41241  32.8383  62.3675 0021661 188.4275 170.6574  1.00271358 36265"}}, "geometry": {"type": "Point", "coordinates": [-161.6486633561186, 24.182788698588492]}}, {"type": "Feature", "properties": {"norad_id": 41328, "name": "GPS BIIF-12 (PRN 32)", "group": "gnss", "lat": 53.23143231820465, "lon": 163.85738714411815, "alt_km": 20415.128716279076, "timestamp": "2025-12-18T23:35:49.301087+00:00", "meta": {"OBJECT_NAME": "GPS BIIF-12 (PRN 32)", "OBJECT_ID": "2016-007A", "EPOCH": "2025-12-18T09:02:43.184544", "MEAN_MOTION": 2.00560483, "ECCENTRICITY": 0.00924431, "INCLINATION": 55.4093, "RA_OF_ASC_NODE": 96.6333, "ARG_OF_PERICENTER": 243.7073, "MEAN_ANOMALY": 115.3258, "EPHEMERIS_TYPE": 0, "CLASSIFICATION_TYPE": "U", "NORAD_CAT_ID": 41328, "ELEMENT_SET_NO": 999, "REV_AT_EPOCH": 7221, "BSTAR": 0, "MEAN_MOTION_DOT": -3.5e-07, "MEAN_MOTION_DDOT": 0}, "tle": {"line1": "1 41328U 16007A   25352.37688871 -.00000035  00000+0  00000+0 0  9994", "line2": "2 41328  55.4093  96.6333 0092443 243.7073 115.3258  2.00560483 72219"}}, "geometry": {"type": "Point", "coordinates": [163.85738714411815, 53.23143231820465]}}, {"type": "Feature", "properties": {"norad_id": 41330, "name": "COSMOS 2514 (751)", "group": "gnss", "lat": -63.7195966371897, "lon": -110.70511370738225, "alt_km": 19120.64706983897, "timestamp": "2025-12-18T23:35:49.301099+00:00", "meta": {"OBJECT_NAME": "COSMOS 2514 (751)", "OBJECT_ID": "2016-008A", "EPOCH": "2025-12-18T03:36:56.540160", "MEAN_MOTION": 2.13102695, "ECCENTRICITY": 0.00118514, "INCLINATION": 65.1307, "RA_OF_ASC_NODE": 319.2187, "ARG_OF_PERICENTER": 220.1582, "MEAN_ANOMALY": 139.7456, "EPHEMERIS_TYPE": 0, "CLASSIFICATION_TYPE": "U", "NORAD_CAT_ID": 41330, "ELEMENT_SET_NO": 999, "REV_AT_EPOCH": 7676, "BSTAR": 0, "MEAN_MOTION_DOT": -6.5e-07, "MEAN_MOTION_DDOT": 0}, "tle": {"line1": "1 41330U 16008A   25352.15065440 -.00000065  00000+0  00000+0 0  9998", "line2": "2 41330  65.1307 319.2187 0011851 220.1582 139.7456  2.13102695 76762"}}, "geometry": {"type": "Point", "coordinates": [-110.70511370738225, -63.7195966371897]}}, {"type": "Feature", "properties": {"norad_id": 41384, "name": "IRNSS-1F", "group": "gnss", "lat": 1.1267845424103888, "lon": 114.10056079822023, "alt_km": 35878.7257810542, "timestamp": "2025-12-18T23:35:49.301114+00:00", "meta": {"OBJECT_NAME": "IRNSS-1F", "OBJECT_ID": "2016-015A", "EPOCH": "2025-12-18T13:26:55.794336", "MEAN_MOTION": 1.00275515, "ECCENTRICITY": 0.00226475, "INCLINATION": 4.8955, "RA_OF_ASC_NODE": 101.1536, "ARG_OF_PERICENTER": 181.4277, "MEAN_ANOMALY": 38.9776, "EPHEMERIS_TYPE": 0, "CLASSIFICATION_TYPE": "U", "NORAD_CAT_ID": 41384, "ELEMENT_SET_NO": 999, "REV_AT_EPOCH": 3585, "BSTAR": 0, "MEAN_MOTION_DOT": 1.79e-06, "MEAN_MOTION_DDOT": 0}, "tle": {"line1": "1 41384U 16015A   25352.56036799  .00000179  00000+0  00000+0 0  9990", "line2": "2 41384   4.8955 101.1536 0022647 181.4277  38.9776  1.00275515 35858"}}, "geometry": {"type": "Point", "coordinates": [114.10056079822023, 1.1267845424103888]}}, {"type": "Feature", "properties": {"norad_id": 41434, "name": "BEIDOU-2 IGSO-6 (C13)", "group": "gnss", "lat": 38.12935260141841, "lon": -167.0898210151546, "alt_km": 35800.64417033327, "timestamp": "2025-12-18T23:35:49.301136+00:00", "meta": {"OBJECT_NAME": "BEIDOU-2 IGSO-6 (C13)", "OBJECT_ID": "2016-021A", "EPOCH": "2025-12-18T14:33:38.837664", "MEAN_MOTION": 1.00292299, "ECCENTRICITY": 0.0061005, "INCLINATION": 59.9732, "RA_OF_ASC_NODE": 39.8392, "ARG_OF_PERICENTER": 230.2031, "MEAN_ANOMALY": 129.1398, "EPHEMERIS_TYPE": 0, "CLASSIFICATION_TYPE": "U", "NORAD_CAT_ID": 41434, "ELEMENT_SET_NO": 999, "REV_AT_EPOCH": 3566, "BSTAR": 0, "MEAN_MOTION_DOT": -1.41e-06, "MEAN_MOTION_DDOT": 0}, "tle": {"line1": "1 41434U 16021A   25352.60669951 -.00000141  00000+0  00000+0 0  9990", "line2": "2 41434  59.9732  39.8392 0061005 230.2031 129.1398  1.00292299 35667"}}, "geometry": {"type": "Point", "coordinates": [-167.0898210151546, 38.12935260141841]}}]}